MH-1                    
1 59145U 24043AZ  24091.59215400  .00022603  00000+0  10865-2 0  9993
2 59145  97.4682 216.5376 0011379 180.9362 179.1853 15.18767046  4038
2024-043BA              
1 59146U 24043BA  24091.59597445  .00012024  00000+0  59004-3 0  9991
2 59146  97.4591 216.5037 0010397 180.4013 179.7214 15.18197786  4034
2024-043BB              
1 59147U 24043BB  24091.59384146  .00012118  00000+0  59245-3 0  9995
2 59147  97.4610 216.5124 0010606 177.0490 183.0808 15.18322163  4034
HAMMER                  
1 59148U 24043BC  24091.59423782  .00015771  00000+0  77142-3 0  9990
2 59148  97.4667 216.5295 0011519 174.0497 186.0876 15.18235937  4034
STARLINK-31312          
1 59152U 24044A   24091.58334491  .00030765  00000+0  56047-3 0  9994
2 59152  42.9998 136.7225 0001721 275.6708 198.5123 15.48894592  5400
STARLINK-31308          
1 59153U 24044B   24091.58334491  .00116068  00000+0  27505-2 0  9992
2 59153  42.9999 139.7850 0001502 242.1856  75.7628 15.40625756  5456
STARLINK-31270          
1 59154U 24044C   24091.58334491  .00081563  00000+0  30975-2 0  9999
2 59154  42.9997 140.6564 0002033 269.0847  52.2739 15.25866413  5459
STARLINK-31341          
1 59155U 24044D   24091.43924780  .00002514  00000+0  10590-3 0  9991
2 59155  42.9991 142.0655 0001367 277.4520  82.6176 15.25914379  5289
STARLINK-31338          
1 59156U 24044E   24091.56790683 -.00002409  00000+0 -82352-4 0  9990
2 59156  42.9973 141.3108 0000767 288.5948  71.4819 15.25892669  5327
STARLINK-31334          
1 59157U 24044F   24091.58334491  .00062496  00000+0  23831-2 0  9999
2 59157  42.9987 141.1960 0001077 255.7204 201.7212 15.25849208  5240
STARLINK-31297          
1 59158U 24044G   24091.58334491  .00106681  00000+0  40346-2 0  9995
2 59158  42.9997 140.6257 0000930 293.6486  40.0284 15.25866696  5451
STARLINK-31182          
1 59159U 24044H   24091.58334491  .00091910  00000+0  34887-2 0  9997
2 59159  42.9989 141.1357 0001246 291.5691 190.7855 15.25824780  5451
STARLINK-31327          
1 59160U 24044J   24091.58334491  .00069616  00000+0  26503-2 0  9993
2 59160  42.9994 140.5949 0001688 297.4816  48.7306 15.25856771  5451
STARLINK-31256          
1 59161U 24044K   24091.58334491  .00077581  00000+0  29501-2 0  9995
2 59161  42.9992 141.0758 0000981 267.0073 240.1674 15.25847294  5453
STARLINK-31272          
1 59162U 24044L   24091.58334491  .00041776  00000+0  16000-2 0  9993
2 59162  42.9992 141.0454 0001251 272.5758 247.0296 15.25865303  5401
STARLINK-31278          
1 59163U 24044M   24091.58334491 -.00071570  00000+0 -27509-2 0  9997
2 59163  42.9995 141.0153 0000942 262.2084 269.8487 15.25933315  5408
STARLINK-31309          
1 59164U 24044N   24091.58334491  .00004788  00000+0  19286-3 0  9997
2 59164  42.9996 140.9849 0001083 266.2434 278.2450 15.25891648  5451
STARLINK-31325          
1 59165U 24044P   24091.58334491  .00077724  00000+0  29570-2 0  9994
2 59165  42.9999 140.9542 0001491 278.1555 278.8288 15.25829851  5197
STARLINK-31342          
1 59166U 24044Q   24091.58334491  .00041872  00000+0  16035-2 0  9992
2 59166  43.0000 140.9241 0000801 290.5183 278.8618 15.25868246  5455
STARLINK-31298          
1 59167U 24044R   24091.58334491 -.00019611  00000+0 -74210-3 0  9991
2 59167  43.0000 140.8937 0001168 264.6799 317.1628 15.25898796  5191
STARLINK-31322          
1 59168U 24044S   24091.58334491  .00063419  00000+0  24194-2 0  9990
2 59168  42.9994 140.4678 0001820 272.2932 125.6944 15.25827830  5452
STARLINK-31329          
1 59169U 24044T   24091.58334491  .00049323  00000+0  18856-2 0  9997
2 59169  42.9993 140.5321 0001177 286.7863  84.3376 15.25860738  5247
STARLINK-31340          
1 59170U 24044U   24091.58334491  .00071897  00000+0  27375-2 0  9996
2 59170  43.0002 140.8029 0001249 277.9668 341.1988 15.25838697  5304
STARLINK-31344          
1 59171U 24044V   24091.58334491  .00098951  00000+0  37498-2 0  9994
2 59171  42.9994 140.5025 0001457 314.9073  68.6296 15.25840720  5368
STARLINK-31348          
1 59172U 24044W   24091.51098299  .00005601  00000+0  10719-3 0  9999
2 59172  42.9992 139.9977 0000241 296.6777  63.4057 15.48927050  5334
STARLINK-31289          
1 59173U 24044X   24091.58334491  .00032654  00000+0  12544-2 0  9999
2 59173  43.0000 140.7128 0002324 274.7324  21.7651 15.25861482  5455
STARLINK-31283          
1 59174U 24044Y   24091.25111129  .00024284  00000+0  58675-3 0  9991
2 59174  42.9997 141.4854 0001735 267.1569  92.9088 15.40699718  5323
EXO-0                   
1 59175U 23174DK  24091.45265506  .00013409  00000+0  70954-3 0  9997
2 59175  97.4612 166.9915 0014303 133.6737 226.5683 15.15475094 21901
STARLINK-31439          
1 59178U 24045A   24091.58334491  .00147322  00000+0  34757-2 0  9994
2 59178  42.9996 168.3390 0001500 278.7013 339.5539 15.40618432  4493
STARLINK-31410          
1 59179U 24045B   24091.58334491  .00067249  00000+0  12154-2 0  9991
2 59179  42.9992 168.1763 0001432 251.2837  73.7615 15.48821597  4506
STARLINK-31395          
1 59180U 24045C   24091.58334491  .00023547  00000+0  43081-3 0  9990
2 59180  42.9992 168.1715 0001414 266.9557  59.9117 15.48893317  4497
STARLINK-31486          
1 59181U 24045D   24091.58334491  .00027793  00000+0  67139-3 0  9998
2 59181  42.9994 168.2781 0001456 290.6397 352.6679 15.40644497  4497
STARLINK-31411          
1 59182U 24045E   24091.58334491 -.02147921  00000+0 -53578-1 0  9999
2 59182  42.9993 168.1921 0001276 278.4375  39.6878 15.43183460  4508
STARLINK-31347          
1 59183U 24045F   24090.55330421 -.00492333  00000+0 -72338-2 0  9999
2 59183  42.9989 173.2303 0002034 350.4305   9.6518 15.56321203  4312
STARLINK-31382          
1 59184U 24045G   24091.58334491  .00033038  00000+0  60154-3 0  9990
2 59184  42.9992 168.1527 0001429 293.5301  41.0153 15.48881463  4492
STARLINK-31394          
1 59185U 24045H   24091.58334491  .00037994  00000+0  69035-3 0  9993
2 59185  42.9992 168.1483 0001221 287.7674  48.6868 15.48884802  4498
STARLINK-31403          
1 59186U 24045J   24091.58334491  .00019205  00000+0  35273-3 0  9996
2 59186  42.9991 168.1426 0001233 302.0932  36.2803 15.48889101  4406
STARLINK-31514          
1 59187U 24045K   24091.58334491  .00059266  00000+0  10709-2 0  9994
2 59187  42.9991 168.1376 0001172 301.0902  39.1955 15.48875952  4509
STARLINK-31478          
1 59188U 24045L   24091.58334491  .00038601  00000+0  70148-3 0  9999
2 59188  42.9991 168.1328 0001417 299.9188  42.2970 15.48874539  4490
STARLINK-31498          
1 59189U 24045M   24091.58334491  .00019202  00000+0  35268-3 0  9990
2 59189  42.9992 168.1285 0001432 253.7553  90.3651 15.48888808  4499
STARLINK-31563          
1 59190U 24045N   24090.75001157  .00095380  00000+0  17050-2 0  9999
2 59190  42.9992 172.9839 0001511 277.4383  96.3986 15.48989411  4377
STARLINK-31551          
1 59191U 24045P   24091.58334491 -.01726420  00000+0 -43426-1 0  9996
2 59191  42.9992 168.1572 0001542 264.5989  67.2857 15.42183722  4494
STARLINK-31536          
1 59192U 24045Q   24088.53937109 -.00134939  00000+0 -16256-2 0  9992
2 59192  42.9994 185.6608 0002636 249.5229 110.5352 15.60336098  3976
STARLINK-31548          
1 59193U 24045R   24091.58334491  .00044209  00000+0  80323-3 0  9992
2 59193  42.9991 168.1079 0001387 281.8632  70.0410 15.48828930  4503
STARLINK-31542          
1 59194U 24045S   24091.58334491  .00078134  00000+0  18564-2 0  9994
2 59194  42.9994 168.2450 0000802 327.2302 328.2434 15.40735973  4499
STARLINK-31554          
1 59195U 24045T   24091.58334491  .00036989  00000+0  67223-3 0  9994
2 59195  42.9991 168.0986 0001038 288.9613  66.6465 15.48889524  4508
STARLINK-31558          
1 59196U 24045U   24091.58334491  .00014756  00000+0  36000-3 0  9992
2 59196  42.9992 168.2142 0001716 271.3901  36.6617 15.40685343  4494
STARLINK-31275          
1 59197U 24045V   24091.58334491 -.00008637  00000+0 -15035-3 0  9991
2 59197  42.9990 168.0893 0001044 281.9220  77.5232 15.48904143  4508
STARLINK-31590          
1 59198U 24045W   24091.58334491  .00015413  00000+0  28435-3 0  9998
2 59198  42.9991 168.0848 0001204 277.3387  84.0165 15.48896315  4500
STARLINK-31567          
1 59199U 24045X   24091.58291226 -.00193284  00000+0 -36354-2 0  9990
2 59199  42.9990 168.0815 0002607 282.0056  78.0511 15.48440294  4440
STARLINK-31503          
1 59200U 24045Y   24091.58334491  .00052373  00000+0  94769-3 0  9991
2 59200  42.9991 168.0750 0001202 254.3054 110.8890 15.48881821  4509
STARLINK-31603          
1 59201U 24046A   24091.58334491 -.01757227  00000+0 -31394-1 0  9999
2 59201  53.1594 219.3655 0001326  70.5354 342.1158 15.52732279  4240
STARLINK-31602          
1 59202U 24046B   24091.58334491 -.01758471  00000+0 -31425-1 0  9997
2 59202  53.1593 219.3637 0001103  66.5160 348.0769 15.52729061  4241
STARLINK-31577          
1 59203U 24046C   24091.05867873 -.00231150  00000+0 -34703-2 0  9997
2 59203  53.1592 221.8842 0002320  77.5724 282.5547 15.55065052  4340
STARLINK-31522          
1 59204U 24046D   24091.58334491 -.01755500  00000+0 -31372-1 0  9990
2 59204  53.1592 219.3530 0001236  60.5823 357.8959 15.52722064  4246
STARLINK-31586          
1 59205U 24046E   24090.86517578 -.00449090  00000+0 -68003-2 0  9995
2 59205  53.1585 222.8091 0001305  65.8610 294.2538 15.55597277  4100
STARLINK-31247          
1 59206U 24046F   24091.58334491 -.01756625  00000+0 -31403-1 0  9996
2 59206  53.1593 219.3447 0001077  56.5235   5.8396 15.52716158  4344
STARLINK-31591          
1 59207U 24046G   24091.58334491 -.01755839  00000+0 -31392-1 0  9990
2 59207  53.1593 219.3362 0001320  65.7904   0.4572 15.52709762  4246
